{
  "type": "FeatureCollection",
  "features": [
    {
      "type": "Feature",
      "id": "B-1",
      "properties": {
        "rank": 1,
        "name": "Arang (B-1)",
        "gridId": "B-1",
        "block": "Arang",
        "urgency": "CRITICAL",
        "tier": 1,
        "risk": 0.6143,
        "bare": 1154.2,
        "highRisk": 869.2,
        "pct": 75.31,
        "soc": 12.02,
        "bsi": 0.1017,
        "ph": 0.64,
        "recommendations": [
          "Apply 8\u201310 t/ha FYM or 3 t/ha Biochar",
          "Green manuring: Dhaincha/Sunnhemp pre-Kharif",
          "Agricultural Lime @ 2.5 t/ha (pH < 1)"
        ],
        "bounds": [
          [
            21.22016178213075,
            81.59919282187424
          ],
          [
            21.260496811984005,
            81.63957579323535
          ]
        ],
        "centroid": [
          21.24032929705738,
          81.6193843075548
        ]
      },
      "geometry": {
        "type": "Polygon",
        "coordinates": [
          [
            [
              81.599193,
              21.260497
            ],
            [
              81.639576,
              21.260497
            ],
            [
              81.639576,
              21.220162
            ],
            [
              81.599193,
              21.220162
            ],
            [
              81.599193,
              21.260497
            ]
          ]
        ]
      }
    },
    {
      "type": "Feature",
      "id": "A-1",
      "properties": {
        "rank": 2,
        "name": "Abhanpur (A-1)",
        "gridId": "A-1",
        "block": "Abhanpur",
        "urgency": "CRITICAL",
        "tier": 1,
        "risk": 0.6106,
        "bare": 1136.8,
        "highRisk": 816.0,
        "pct": 71.78,
        "soc": 22.74,
        "bsi": 0.125,
        "ph": 1.24,
        "recommendations": [
          "Apply 8\u201310 t/ha FYM or 3 t/ha Biochar",
          "Green manuring: Dhaincha/Sunnhemp pre-Kharif",
          "Rotate with Pigeonpea for N-fixation"
        ],
        "bounds": [
          [
            21.260496811984005,
            81.59919282187424
          ],
          [
            21.30083184183726,
            81.63957579323535
          ]
        ],
        "centroid": [
          21.28066432691063,
          81.6193843075548
        ]
      },
      "geometry": {
        "type": "Polygon",
        "coordinates": [
          [
            [
              81.599193,
              21.300832
            ],
            [
              81.639576,
              21.300832
            ],
            [
              81.639576,
              21.260497
            ],
            [
              81.599193,
              21.260497
            ],
            [
              81.599193,
              21.300832
            ]
          ]
        ]
      }
    },
    {
      "type": "Feature",
      "id": "B-2",
      "properties": {
        "rank": 3,
        "name": "Arang (B-2)",
        "gridId": "B-2",
        "block": "Arang",
        "urgency": "MODERATE",
        "tier": 2,
        "risk": 0.5925,
        "bare": 1108.7,
        "highRisk": 711.2,
        "pct": 64.14,
        "soc": 7.94,
        "bsi": 0.1078,
        "ph": 0.43,
        "recommendations": [
          "Apply 5 t/ha FYM + crop residue incorporation",
          "Agricultural Lime @ 2.0 t/ha",
          "INM: 75% RDF + 25% organic manure"
        ],
        "bounds": [
          [
            21.22016178213075,
            81.63957579323535
          ],
          [
            21.260496811984005,
            81.67995876459646
          ]
        ],
        "centroid": [
          21.24032929705738,
          81.65976727891591
        ]
      },
      "geometry": {
        "type": "Polygon",
        "coordinates": [
          [
            [
              81.639576,
              21.260497
            ],
            [
              81.679959,
              21.260497
            ],
            [
              81.679959,
              21.220162
            ],
            [
              81.639576,
              21.220162
            ],
            [
              81.639576,
              21.260497
            ]
          ]
        ]
      }
    },
    {
      "type": "Feature",
      "id": "A-2",
      "properties": {
        "rank": 4,
        "name": "Abhanpur (A-2)",
        "gridId": "A-2",
        "block": "Abhanpur",
        "urgency": "MODERATE",
        "tier": 2,
        "risk": 0.5717,
        "bare": 576.8,
        "highRisk": 316.3,
        "pct": 54.83,
        "soc": 67.95,
        "bsi": 0.0567,
        "ph": 3.69,
        "recommendations": [
          "INM: 75% RDF + 25% organic manure",
          "Zero-tillage + paddy straw mulching (3\u20134 t/ha)",
          "Legume cover crop rotation"
        ],
        "bounds": [
          [
            21.260496811984005,
            81.63957579323535
          ],
          [
            21.30083184183726,
            81.67995876459646
          ]
        ],
        "centroid": [
          21.28066432691063,
          81.65976727891591
        ]
      },
      "geometry": {
        "type": "Polygon",
        "coordinates": [
          [
            [
              81.639576,
              21.300832
            ],
            [
              81.679959,
              21.300832
            ],
            [
              81.679959,
              21.260497
            ],
            [
              81.639576,
              21.260497
            ],
            [
              81.639576,
              21.300832
            ]
          ]
        ]
      }
    },
    {
      "type": "Feature",
      "id": "C-1",
      "properties": {
        "rank": 5,
        "name": "Raipur Rural (C-1)",
        "gridId": "C-1",
        "block": "Raipur Rural",
        "urgency": "MODERATE",
        "tier": 2,
        "risk": 0.5068,
        "bare": 780.6,
        "highRisk": 202.9,
        "pct": 25.99,
        "soc": 99.76,
        "bsi": 0.1093,
        "ph": 4.83,
        "recommendations": [
          "Moderate: 5 t/ha FYM + balanced NPK",
          "Surface mulching to preserve topsoil moisture",
          "INM stewardship package"
        ],
        "bounds": [
          [
            21.179826752277492,
            81.59919282187424
          ],
          [
            21.22016178213075,
            81.63957579323535
          ]
        ],
        "centroid": [
          21.19999426720412,
          81.6193843075548
        ]
      },
      "geometry": {
        "type": "Polygon",
        "coordinates": [
          [
            [
              81.599193,
              21.220162
            ],
            [
              81.639576,
              21.220162
            ],
            [
              81.639576,
              21.179827
            ],
            [
              81.599193,
              21.179827
            ],
            [
              81.599193,
              21.220162
            ]
          ]
        ]
      }
    },
    {
      "type": "Feature",
      "id": "A-3",
      "properties": {
        "rank": 6,
        "name": "Abhanpur (A-3)",
        "gridId": "A-3",
        "block": "Abhanpur",
        "urgency": "MODERATE",
        "tier": 2,
        "risk": 0.4997,
        "bare": 743.8,
        "highRisk": 136.5,
        "pct": 18.35,
        "soc": 115.18,
        "bsi": 0.1394,
        "ph": 5.91,
        "recommendations": [
          "5 t/ha FYM + balanced NPK (120:60:60)",
          "Zero-tillage with paddy straw retention",
          "Gypsum @ 250 kg/ha for sub-soil compaction"
        ],
        "bounds": [
          [
            21.260496811984005,
            81.67995876459646
          ],
          [
            21.30083184183726,
            81.72034173595758
          ]
        ],
        "centroid": [
          21.28066432691063,
          81.70015025027702
        ]
      },
      "geometry": {
        "type": "Polygon",
        "coordinates": [
          [
            [
              81.679959,
              21.300832
            ],
            [
              81.720342,
              21.300832
            ],
            [
              81.720342,
              21.260497
            ],
            [
              81.679959,
              21.260497
            ],
            [
              81.679959,
              21.300832
            ]
          ]
        ]
      }
    },
    {
      "type": "Feature",
      "id": "C-2",
      "properties": {
        "rank": 7,
        "name": "Raipur Rural (C-2)",
        "gridId": "C-2",
        "block": "Raipur Rural",
        "urgency": "MODERATE",
        "tier": 2,
        "risk": 0.4981,
        "bare": 931.2,
        "highRisk": 196.8,
        "pct": 21.13,
        "soc": 113.82,
        "bsi": 0.1513,
        "ph": 5.31,
        "recommendations": [
          "Moderate organic input: 5 t/ha compost",
          "Micro-nutrient: ZnSO4 @ 25 kg/ha",
          "Soil moisture conservation by contour bunding"
        ],
        "bounds": [
          [
            21.179826752277492,
            81.63957579323535
          ],
          [
            21.22016178213075,
            81.67995876459646
          ]
        ],
        "centroid": [
          21.19999426720412,
          81.65976727891591
        ]
      },
      "geometry": {
        "type": "Polygon",
        "coordinates": [
          [
            [
              81.639576,
              21.220162
            ],
            [
              81.679959,
              21.220162
            ],
            [
              81.679959,
              21.179827
            ],
            [
              81.639576,
              21.179827
            ],
            [
              81.639576,
              21.220162
            ]
          ]
        ]
      }
    },
    {
      "type": "Feature",
      "id": "B-3",
      "properties": {
        "rank": 8,
        "name": "Arang (B-3)",
        "gridId": "B-3",
        "block": "Arang",
        "urgency": "MODERATE",
        "tier": 2,
        "risk": 0.4886,
        "bare": 617.8,
        "highRisk": 85.2,
        "pct": 13.78,
        "soc": 120.32,
        "bsi": 0.1428,
        "ph": 6.35,
        "recommendations": [
          "4 t/ha FYM + crop residue mulching",
          "INM package: 50% NPK + 50% organic",
          "Soybean/Pigeonpea intercropping rotation"
        ],
        "bounds": [
          [
            21.22016178213075,
            81.67995876459646
          ],
          [
            21.260496811984005,
            81.72034173595758
          ]
        ],
        "centroid": [
          21.24032929705738,
          81.70015025027702
        ]
      },
      "geometry": {
        "type": "Polygon",
        "coordinates": [
          [
            [
              81.679959,
              21.260497
            ],
            [
              81.720342,
              21.260497
            ],
            [
              81.720342,
              21.220162
            ],
            [
              81.679959,
              21.220162
            ],
            [
              81.679959,
              21.260497
            ]
          ]
        ]
      }
    },
    {
      "type": "Feature",
      "id": "B-4",
      "properties": {
        "rank": 9,
        "name": "Arang (B-4)",
        "gridId": "B-4",
        "block": "Arang",
        "urgency": "MODERATE",
        "tier": 2,
        "risk": 0.4862,
        "bare": 581.9,
        "highRisk": 54.5,
        "pct": 9.36,
        "soc": 143.46,
        "bsi": 0.205,
        "ph": 6.57,
        "recommendations": [
          "Maintain current SOC with crop residue retention",
          "Green manure: Sesbania incorporation",
          "Balanced NPK with micronutrient management"
        ],
        "bounds": [
          [
            21.22016178213075,
            81.72034173595756
          ],
          [
            21.260496811984005,
            81.76072470731867
          ]
        ],
        "centroid": [
          21.24032929705738,
          81.74053322163812
        ]
      },
      "geometry": {
        "type": "Polygon",
        "coordinates": [
          [
            [
              81.720342,
              21.260497
            ],
            [
              81.760725,
              21.260497
            ],
            [
              81.760725,
              21.220162
            ],
            [
              81.720342,
              21.220162
            ],
            [
              81.720342,
              21.260497
            ]
          ]
        ]
      }
    },
    {
      "type": "Feature",
      "id": "B-5",
      "properties": {
        "rank": 10,
        "name": "Arang (B-5)",
        "gridId": "B-5",
        "block": "Arang",
        "urgency": "MODERATE",
        "tier": 2,
        "risk": 0.4835,
        "bare": 949.6,
        "highRisk": 68.8,
        "pct": 7.24,
        "soc": 113.67,
        "bsi": 0.2468,
        "ph": 5.9,
        "recommendations": [
          "3 t/ha FYM + residue incorporation",
          "Zinc sulphate @ 25 kg/ha",
          "SRI method for paddy to reduce water stress"
        ],
        "bounds": [
          [
            21.22016178213075,
            81.76072470731867
          ],
          [
            21.260496811984005,
            81.80110767867978
          ]
        ],
        "centroid": [
          21.24032929705738,
          81.78091619299923
        ]
      },
      "geometry": {
        "type": "Polygon",
        "coordinates": [
          [
            [
              81.760725,
              21.260497
            ],
            [
              81.801108,
              21.260497
            ],
            [
              81.801108,
              21.220162
            ],
            [
              81.760725,
              21.220162
            ],
            [
              81.760725,
              21.260497
            ]
          ]
        ]
      }
    },
    {
      "type": "Feature",
      "id": "C-4",
      "properties": {
        "rank": 11,
        "name": "Raipur Rural (C-4)",
        "gridId": "C-4",
        "block": "Raipur Rural",
        "urgency": "MODERATE",
        "tier": 2,
        "risk": 0.4822,
        "bare": 819.6,
        "highRisk": 31.1,
        "pct": 3.79,
        "soc": 130.63,
        "bsi": 0.2319,
        "ph": 6.89,
        "recommendations": [
          "Maintenance dose: 3 t/ha vermicompost",
          "Crop diversification from paddy monoculture",
          "Precision irrigation to limit soil crusting"
        ],
        "bounds": [
          [
            21.179826752277492,
            81.72034173595756
          ],
          [
            21.22016178213075,
            81.76072470731867
          ]
        ],
        "centroid": [
          21.19999426720412,
          81.74053322163812
        ]
      },
      "geometry": {
        "type": "Polygon",
        "coordinates": [
          [
            [
              81.720342,
              21.220162
            ],
            [
              81.760725,
              21.220162
            ],
            [
              81.760725,
              21.179827
            ],
            [
              81.720342,
              21.179827
            ],
            [
              81.720342,
              21.220162
            ]
          ]
        ]
      }
    },
    {
      "type": "Feature",
      "id": "C-3",
      "properties": {
        "rank": 12,
        "name": "Raipur Rural (C-3)",
        "gridId": "C-3",
        "block": "Raipur Rural",
        "urgency": "MODERATE",
        "tier": 2,
        "risk": 0.4819,
        "bare": 635.7,
        "highRisk": 50.5,
        "pct": 7.94,
        "soc": 129.1,
        "bsi": 0.168,
        "ph": 6.57,
        "recommendations": [
          "3 t/ha FYM compost application",
          "Multi-cropping: Kharif paddy + Rabi mustard/gram",
          "Organic carbon enrichment via coirpith compost"
        ],
        "bounds": [
          [
            21.179826752277492,
            81.67995876459646
          ],
          [
            21.22016178213075,
            81.72034173595758
          ]
        ],
        "centroid": [
          21.19999426720412,
          81.70015025027702
        ]
      },
      "geometry": {
        "type": "Polygon",
        "coordinates": [
          [
            [
              81.679959,
              21.220162
            ],
            [
              81.720342,
              21.220162
            ],
            [
              81.720342,
              21.179827
            ],
            [
              81.679959,
              21.179827
            ],
            [
              81.679959,
              21.220162
            ]
          ]
        ]
      }
    },
    {
      "type": "Feature",
      "id": "A-4",
      "properties": {
        "rank": 13,
        "name": "Abhanpur (A-4)",
        "gridId": "A-4",
        "block": "Abhanpur",
        "urgency": "MODERATE",
        "tier": 2,
        "risk": 0.4783,
        "bare": 821.3,
        "highRisk": 45.0,
        "pct": 5.48,
        "soc": 122.18,
        "bsi": 0.2123,
        "ph": 6.84,
        "recommendations": [
          "3 t/ha compost + micro-nutrient mixture",
          "Cover crops during fallow: Cowpea/Horsegram",
          "Weed management to reduce bare soil exposure"
        ],
        "bounds": [
          [
            21.260496811984005,
            81.72034173595756
          ],
          [
            21.30083184183726,
            81.76072470731867
          ]
        ],
        "centroid": [
          21.28066432691063,
          81.74053322163812
        ]
      },
      "geometry": {
        "type": "Polygon",
        "coordinates": [
          [
            [
              81.720342,
              21.300832
            ],
            [
              81.760725,
              21.300832
            ],
            [
              81.760725,
              21.260497
            ],
            [
              81.720342,
              21.260497
            ],
            [
              81.720342,
              21.300832
            ]
          ]
        ]
      }
    },
    {
      "type": "Feature",
      "id": "D-5",
      "properties": {
        "rank": 14,
        "name": "Dharsiwa (D-5)",
        "gridId": "D-5",
        "block": "Dharsiwa",
        "urgency": "MODERATE",
        "tier": 2,
        "risk": 0.4739,
        "bare": 771.5,
        "highRisk": 36.0,
        "pct": 4.67,
        "soc": 134.98,
        "bsi": 0.1988,
        "ph": 6.83,
        "recommendations": [
          "2.5 t/ha vermicompost maintenance dose",
          "Soil test-based fertiliser application",
          "Zero-till direct seeded rice to conserve SOC"
        ],
        "bounds": [
          [
            21.13949172242424,
            81.76072470731867
          ],
          [
            21.179826752277496,
            81.80110767867978
          ]
        ],
        "centroid": [
          21.159659237350866,
          81.78091619299923
        ]
      },
      "geometry": {
        "type": "Polygon",
        "coordinates": [
          [
            [
              81.760725,
              21.179827
            ],
            [
              81.801108,
              21.179827
            ],
            [
              81.801108,
              21.139492
            ],
            [
              81.760725,
              21.139492
            ],
            [
              81.760725,
              21.179827
            ]
          ]
        ]
      }
    },
    {
      "type": "Feature",
      "id": "A-5",
      "properties": {
        "rank": 15,
        "name": "Abhanpur (A-5)",
        "gridId": "A-5",
        "block": "Abhanpur",
        "urgency": "MODERATE",
        "tier": 2,
        "risk": 0.4719,
        "bare": 1086.9,
        "highRisk": 58.4,
        "pct": 5.37,
        "soc": 117.94,
        "bsi": 0.2373,
        "ph": 6.3,
        "recommendations": [
          "3 t/ha FYM + neem cake application",
          "Alternate wetting and drying (AWD) irrigation",
          "Crop rotation with N-fixing legumes"
        ],
        "bounds": [
          [
            21.260496811984005,
            81.76072470731867
          ],
          [
            21.30083184183726,
            81.80110767867978
          ]
        ],
        "centroid": [
          21.28066432691063,
          81.78091619299923
        ]
      },
      "geometry": {
        "type": "Polygon",
        "coordinates": [
          [
            [
              81.760725,
              21.300832
            ],
            [
              81.801108,
              21.300832
            ],
            [
              81.801108,
              21.260497
            ],
            [
              81.760725,
              21.260497
            ],
            [
              81.760725,
              21.300832
            ]
          ]
        ]
      }
    },
    {
      "type": "Feature",
      "id": "E-5",
      "properties": {
        "rank": 16,
        "name": "Tilda (E-5)",
        "gridId": "E-5",
        "block": "Tilda",
        "urgency": "MODERATE",
        "tier": 2,
        "risk": 0.4679,
        "bare": 950.9,
        "highRisk": 27.2,
        "pct": 2.86,
        "soc": 120.48,
        "bsi": 0.2197,
        "ph": 6.71,
        "recommendations": [
          "Maintenance: 2 t/ha compost annually",
          "Balanced NPK: 100:50:50 kg/ha",
          "Crop residue incorporation instead of burning"
        ],
        "bounds": [
          [
            21.099156692570983,
            81.76072470731867
          ],
          [
            21.13949172242424,
            81.80110767867978
          ]
        ],
        "centroid": [
          21.119324207497613,
          81.78091619299923
        ]
      },
      "geometry": {
        "type": "Polygon",
        "coordinates": [
          [
            [
              81.760725,
              21.139492
            ],
            [
              81.801108,
              21.139492
            ],
            [
              81.801108,
              21.099157
            ],
            [
              81.760725,
              21.099157
            ],
            [
              81.760725,
              21.139492
            ]
          ]
        ]
      }
    },
    {
      "type": "Feature",
      "id": "C-5",
      "properties": {
        "rank": 17,
        "name": "Raipur Rural (C-5)",
        "gridId": "C-5",
        "block": "Raipur Rural",
        "urgency": "MODERATE",
        "tier": 2,
        "risk": 0.4662,
        "bare": 977.6,
        "highRisk": 45.6,
        "pct": 4.67,
        "soc": 130.84,
        "bsi": 0.2411,
        "ph": 6.98,
        "recommendations": [
          "Preventive: 2 t/ha FYM annually",
          "Promote SRI cultivation method",
          "Agroforestry boundaries to check wind erosion"
        ],
        "bounds": [
          [
            21.179826752277492,
            81.76072470731867
          ],
          [
            21.22016178213075,
            81.80110767867978
          ]
        ],
        "centroid": [
          21.19999426720412,
          81.78091619299923
        ]
      },
      "geometry": {
        "type": "Polygon",
        "coordinates": [
          [
            [
              81.760725,
              21.220162
            ],
            [
              81.801108,
              21.220162
            ],
            [
              81.801108,
              21.179827
            ],
            [
              81.760725,
              21.179827
            ],
            [
              81.760725,
              21.220162
            ]
          ]
        ]
      }
    },
    {
      "type": "Feature",
      "id": "D-4",
      "properties": {
        "rank": 18,
        "name": "Dharsiwa (D-4)",
        "gridId": "D-4",
        "block": "Dharsiwa",
        "urgency": "STABLE",
        "tier": 3,
        "risk": 0.4594,
        "bare": 861.9,
        "highRisk": 23.5,
        "pct": 2.73,
        "soc": 139.13,
        "bsi": 0.2149,
        "ph": 7.03,
        "recommendations": [
          "Continue current practices",
          "Annual soil health monitoring",
          "Crop residue management for SOC maintenance"
        ],
        "bounds": [
          [
            21.13949172242424,
            81.72034173595756
          ],
          [
            21.179826752277496,
            81.76072470731867
          ]
        ],
        "centroid": [
          21.159659237350866,
          81.74053322163812
        ]
      },
      "geometry": {
        "type": "Polygon",
        "coordinates": [
          [
            [
              81.720342,
              21.179827
            ],
            [
              81.760725,
              21.179827
            ],
            [
              81.760725,
              21.139492
            ],
            [
              81.720342,
              21.139492
            ],
            [
              81.720342,
              21.179827
            ]
          ]
        ]
      }
    },
    {
      "type": "Feature",
      "id": "E-4",
      "properties": {
        "rank": 19,
        "name": "Tilda (E-4)",
        "gridId": "E-4",
        "block": "Tilda",
        "urgency": "STABLE",
        "tier": 3,
        "risk": 0.447,
        "bare": 1142.3,
        "highRisk": 20.0,
        "pct": 1.75,
        "soc": 148.99,
        "bsi": 0.2273,
        "ph": 6.9,
        "recommendations": [
          "Preventive maintenance: 1.5 t/ha compost",
          "Monitor for pest/disease stress",
          "Precision fertiliser application"
        ],
        "bounds": [
          [
            21.099156692570983,
            81.72034173595756
          ],
          [
            21.13949172242424,
            81.76072470731867
          ]
        ],
        "centroid": [
          21.119324207497613,
          81.74053322163812
        ]
      },
      "geometry": {
        "type": "Polygon",
        "coordinates": [
          [
            [
              81.720342,
              21.139492
            ],
            [
              81.760725,
              21.139492
            ],
            [
              81.760725,
              21.099157
            ],
            [
              81.720342,
              21.099157
            ],
            [
              81.720342,
              21.139492
            ]
          ]
        ]
      }
    },
    {
      "type": "Feature",
      "id": "D-2",
      "properties": {
        "rank": 20,
        "name": "Dharsiwa (D-2)",
        "gridId": "D-2",
        "block": "Dharsiwa",
        "urgency": "STABLE",
        "tier": 3,
        "risk": 0.444,
        "bare": 706.2,
        "highRisk": 18.6,
        "pct": 2.63,
        "soc": 152.46,
        "bsi": 0.1524,
        "ph": 7.13,
        "recommendations": [
          "Stable zone: routine monitoring",
          "Balanced NPK with soil test basis",
          "Biodiversity conservation in field margins"
        ],
        "bounds": [
          [
            21.13949172242424,
            81.63957579323535
          ],
          [
            21.179826752277496,
            81.67995876459646
          ]
        ],
        "centroid": [
          21.159659237350866,
          81.65976727891591
        ]
      },
      "geometry": {
        "type": "Polygon",
        "coordinates": [
          [
            [
              81.639576,
              21.179827
            ],
            [
              81.679959,
              21.179827
            ],
            [
              81.679959,
              21.139492
            ],
            [
              81.639576,
              21.139492
            ],
            [
              81.639576,
              21.179827
            ]
          ]
        ]
      }
    },
    {
      "type": "Feature",
      "id": "D-1",
      "properties": {
        "rank": 21,
        "name": "Dharsiwa (D-1)",
        "gridId": "D-1",
        "block": "Dharsiwa",
        "urgency": "STABLE",
        "tier": 3,
        "risk": 0.4428,
        "bare": 824.7,
        "highRisk": 70.8,
        "pct": 8.58,
        "soc": 153.68,
        "bsi": 0.1202,
        "ph": 6.97,
        "recommendations": [
          "Stable zone: maintain organic inputs",
          "Water harvesting structures for drought resilience",
          "Monitor BSI quarterly for early warning"
        ],
        "bounds": [
          [
            21.13949172242424,
            81.59919282187424
          ],
          [
            21.179826752277496,
            81.63957579323535
          ]
        ],
        "centroid": [
          21.159659237350866,
          81.6193843075548
        ]
      },
      "geometry": {
        "type": "Polygon",
        "coordinates": [
          [
            [
              81.599193,
              21.179827
            ],
            [
              81.639576,
              21.179827
            ],
            [
              81.639576,
              21.139492
            ],
            [
              81.599193,
              21.139492
            ],
            [
              81.599193,
              21.179827
            ]
          ]
        ]
      }
    },
    {
      "type": "Feature",
      "id": "D-3",
      "properties": {
        "rank": 22,
        "name": "Dharsiwa (D-3)",
        "gridId": "D-3",
        "block": "Dharsiwa",
        "urgency": "STABLE",
        "tier": 3,
        "risk": 0.4421,
        "bare": 949.3,
        "highRisk": 23.3,
        "pct": 2.45,
        "soc": 151.27,
        "bsi": 0.2064,
        "ph": 7.05,
        "recommendations": [
          "Stable: Continue good agronomic practices",
          "Micronutrient monitoring: Zn, Fe, Mn",
          "Contour farming to prevent runoff"
        ],
        "bounds": [
          [
            21.13949172242424,
            81.67995876459646
          ],
          [
            21.179826752277496,
            81.72034173595758
          ]
        ],
        "centroid": [
          21.159659237350866,
          81.70015025027702
        ]
      },
      "geometry": {
        "type": "Polygon",
        "coordinates": [
          [
            [
              81.679959,
              21.179827
            ],
            [
              81.720342,
              21.179827
            ],
            [
              81.720342,
              21.139492
            ],
            [
              81.679959,
              21.139492
            ],
            [
              81.679959,
              21.179827
            ]
          ]
        ]
      }
    },
    {
      "type": "Feature",
      "id": "E-1",
      "properties": {
        "rank": 23,
        "name": "Tilda (E-1)",
        "gridId": "E-1",
        "block": "Tilda",
        "urgency": "STABLE",
        "tier": 3,
        "risk": 0.4395,
        "bare": 1242.2,
        "highRisk": 48.7,
        "pct": 3.92,
        "soc": 148.69,
        "bsi": 0.1799,
        "ph": 6.99,
        "recommendations": [
          "Stable: Annual organic matter replenishment",
          "Soil biological activity promotion",
          "Conservation agriculture principles"
        ],
        "bounds": [
          [
            21.099156692570983,
            81.59919282187424
          ],
          [
            21.13949172242424,
            81.63957579323535
          ]
        ],
        "centroid": [
          21.119324207497613,
          81.6193843075548
        ]
      },
      "geometry": {
        "type": "Polygon",
        "coordinates": [
          [
            [
              81.599193,
              21.139492
            ],
            [
              81.639576,
              21.139492
            ],
            [
              81.639576,
              21.099157
            ],
            [
              81.599193,
              21.099157
            ],
            [
              81.599193,
              21.139492
            ]
          ]
        ]
      }
    },
    {
      "type": "Feature",
      "id": "E-3",
      "properties": {
        "rank": 24,
        "name": "Tilda (E-3)",
        "gridId": "E-3",
        "block": "Tilda",
        "urgency": "STABLE",
        "tier": 3,
        "risk": 0.4381,
        "bare": 1280.7,
        "highRisk": 20.1,
        "pct": 1.57,
        "soc": 172.42,
        "bsi": 0.2385,
        "ph": 7.01,
        "recommendations": [
          "Best-performing zone: document practices",
          "Share practices with adjacent high-risk sectors",
          "Long-term agroforestry integration"
        ],
        "bounds": [
          [
            21.099156692570983,
            81.67995876459646
          ],
          [
            21.13949172242424,
            81.72034173595758
          ]
        ],
        "centroid": [
          21.119324207497613,
          81.70015025027702
        ]
      },
      "geometry": {
        "type": "Polygon",
        "coordinates": [
          [
            [
              81.679959,
              21.139492
            ],
            [
              81.720342,
              21.139492
            ],
            [
              81.720342,
              21.099157
            ],
            [
              81.679959,
              21.099157
            ],
            [
              81.679959,
              21.139492
            ]
          ]
        ]
      }
    },
    {
      "type": "Feature",
      "id": "E-2",
      "properties": {
        "rank": 25,
        "name": "Tilda (E-2)",
        "gridId": "E-2",
        "block": "Tilda",
        "urgency": "STABLE",
        "tier": 3,
        "risk": 0.4287,
        "bare": 1050.4,
        "highRisk": 13.5,
        "pct": 1.29,
        "soc": 160.79,
        "bsi": 0.1915,
        "ph": 7.12,
        "recommendations": [
          "Lowest risk: Model farm potential",
          "Carbon sequestration monitoring",
          "Demonstrate regenerative practices"
        ],
        "bounds": [
          [
            21.099156692570983,
            81.63957579323535
          ],
          [
            21.13949172242424,
            81.67995876459646
          ]
        ],
        "centroid": [
          21.119324207497613,
          81.65976727891591
        ]
      },
      "geometry": {
        "type": "Polygon",
        "coordinates": [
          [
            [
              81.639576,
              21.139492
            ],
            [
              81.679959,
              21.139492
            ],
            [
              81.679959,
              21.099157
            ],
            [
              81.639576,
              21.099157
            ],
            [
              81.639576,
              21.139492
            ]
          ]
        ]
      }
    }
  ]
}